OBJECT_NAME,OBJECT_ID,EPOCH,MEAN_MOTION,ECCENTRICITY,INCLINATION,RA_OF_ASC_NODE,ARG_OF_PERICENTER,MEAN_ANOMALY,EPHEMERIS_TYPE,CLASSIFICATION_TYPE,NORAD_CAT_ID,ELEMENT_SET_NO,REV_AT_EPOCH,BSTAR,MEAN_MOTION_DOT,MEAN_MOTION_DDOT
SL-12 R/B(2),1985-042D,2026-07-02T19:12:40.379040,14.22008879,.003702,71.1061,204.5291,304.4131,228.3769,0,U,15772,999,13075,.24763E-4,.7E-7,0
SL-14 R/B,1985-069B,2026-07-02T17:14:38.025024,14.86527810,.0019117,82.5273,276.7596,166.7944,193.3777,0,U,15945,999,18992,.55878E-4,.521E-5,0
SL-16 R/B,1985-097B,2026-07-02T16:20:23.146944,14.16614760,.0005257,71.0030,258.4596,77.0182,85.0815,0,U,16182,999,10351,-.18005E-4,-.84E-6,0
SL-14 R/B,1986-006B,2026-07-02T15:55:33.608352,14.86959965,.0074756,82.5272,151.5491,251.1120,108.1982,0,U,16496,999,16629,.57855E-4,.57E-5,0
COSMOS 1743,1986-034A,2026-07-02T20:23:18.771648,15.68445434,.0004891,82.5283,312.0623,216.1233,143.9698,0,U,16719,999,19824,.5411E-3,.61301E-3,0
SL-14 R/B,1986-046B,2026-07-02T20:17:48.975072,14.85682982,.0022429,82.4829,331.3783,203.9965,156.0208,0,U,16792,999,14350,.58518E-4,.534E-5,0
SL-14 R/B,1986-055B,2026-07-02T19:52:15.614400,14.85733622,.0017733,82.5198,18.4261,314.6163,55.9862,0,U,16882,999,13646,.48705E-4,.448E-5,0
AJISAI (EGS),1986-061A,2026-07-02T18:55:47.701056,12.44516669,.0011131,50.0090,99.4206,220.2137,179.8154,0,U,16908,999,48233,.59473E-4,-.89E-6,0
SL-14 R/B,1987-024B,2026-07-02T20:05:38.721408,14.86224406,.0016911,82.5287,344.5388,236.7603,123.1994,0,U,17567,999,10523,.53913E-4,.499E-5,0
COSMOS 1833,1987-027A,2026-07-02T19:45:54.601632,14.13061245,.0023435,70.9209,84.0034,29.0395,331.2024,0,U,17589,999,2658,.16223E-3,.256E-5,0
SL-16 R/B,1987-027B,2026-07-02T17:52:16.158144,14.17175058,.0006994,71.0033,34.0446,295.4831,64.5569,0,U,17590,999,3164,.30338E-4,.13E-6,0
SL-14 R/B,1987-038B,2026-07-02T18:09:45.462816,14.85454815,.0020228,82.5003,188.4062,140.6675,219.6015,0,U,17912,999,9631,.47565E-4,.436E-5,0
COSMOS 1844,1987-041A,2026-07-02T21:01:53.639328,14.14572883,.0032066,70.8977,151.2130,212.6798,147.2341,0,U,17973,999,1987,.23033E-3,.396E-5,0
SL-14 R/B,1987-055B,2026-07-02T13:53:20.359104,14.85720977,.0020449,82.4983,240.7202,358.1069,2.0066,0,U,18153,999,8699,.46082E-4,.425E-5,0
COSMOS 1867,1987-060A,2026-07-02T20:26:46.516128,14.31517529,.0016864,65.0117,344.1877,282.1308,77.7887,0,U,18187,999,3642,.27092E-4,-.28E-6,0
SL-14 R/B,1988-001B,2026-07-02T17:11:47.392800,14.85620294,.0017065,82.5132,87.1643,213.9437,146.0689,0,U,18749,999,5910,.48249E-4,.443E-5,0
COSMOS 1933,1988-020A,2026-07-02T20:23:56.131008,15.18819715,.00051,82.5136,136.9243,138.5153,221.6469,0,U,18958,999,6770,.21203E-3,.4444E-4,0
SL-3 R/B,1988-032B,2026-07-02T16:54:26.227872,15.20952930,.002519,97.5264,166.7308,188.5061,171.5751,0,U,19046,999,6958,.2201E-3,.4843E-4,0
SL-16 R/B,1988-039B,2026-07-02T16:37:53.783904,14.19631044,.0021286,71.0128,185.3704,169.4519,190.7057,0,U,19120,999,97470,.64942E-4,.89E-6,0
COSMOS 1953,1988-050A,2026-07-02T07:43:38.171712,15.30186907,.0012317,82.5063,42.7696,80.1340,280.1290,0,U,19210,999,5530,.27648E-3,.8125E-4,0
SL-8 R/B,1988-053B,2026-07-02T11:59:45.637728,14.38973580,.0019307,74.0475,260.8316,50.5253,322.9631,0,U,19257,999,99311,.83933E-4,.233E-5,0
COSMOS 1975,1988-093A,2026-07-02T11:08:20.261760,15.29526290,.0012391,82.5189,2.3310,121.8676,238.3772,0,U,19573,999,3694,.26555E-3,.7648E-4,0
SL-14 R/B,1988-093B,2026-07-02T18:45:00.030240,14.85753516,.0021129,82.5321,294.0051,21.4200,138.7988,0,U,19574,999,1810,.51173E-4,.47E-5,0
SL-16 R/B,1988-102B,2026-07-02T14:46:13.872576,14.16169454,.0014978,71.0003,269.6762,204.0874,155.9550,0,U,19650,999,94316,.53113E-4,.57E-6,0
INTERCOSMOS 24,1989-080A,2026-07-02T12:04:49.245600,12.59682968,.1187868,82.6049,29.6777,26.3958,339.2942,0,U,20261,999,68125,.20095E-3,.703E-5,0
SL-14 R/B,1989-080C,2026-07-02T18:17:21.480288,12.50576082,.122838,82.5942,99.3016,281.7492,64.8613,0,U,20262,999,67453,.50474E-4,.167E-5,0
DELTA 1 R/B,1989-089B,2026-07-02T11:05:39.255360,14.50741173,.007035,97.0633,12.5760,119.3340,241.4911,0,U,20323,999,91237,.971E-4,.36E-5,0
ARIANE 40 R/B,1990-005H,2026-07-02T14:38:27.660768,14.39935633,.0009436,98.2952,240.7462,212.6608,147.3998,0,U,20443,999,90934,.10719E-3,.295E-5,0
DELTA 2 R/B(1),1990-008B,2026-07-01T22:37:59.129472,15.71224893,.00641802,35.6000,136.7735,253.2131,106.1561,0,U,20453,999,94402,.67236802E-3,.101038E-2,0
COSMOS 2058,1990-010A,2026-07-02T18:04:33.322080,15.12108284,.0008402,82.4692,294.0048,301.0088,59.0316,0,U,20465,999,95962,.19118E-3,.3322E-4,0
SL-14 R/B,1990-010B,2026-07-02T16:18:47.642976,14.83656641,.0018212,82.5024,159.3952,282.0178,77.8996,0,U,20466,999,94553,.52422E-4,.457E-5,0
